OBJECT_NAME,OBJECT_ID,EPOCH,MEAN_MOTION,ECCENTRICITY,INCLINATION,RA_OF_ASC_NODE,ARG_OF_PERICENTER,MEAN_ANOMALY,EPHEMERIS_TYPE,CLASSIFICATION_TYPE,NORAD_CAT_ID,ELEMENT_SET_NO,REV_AT_EPOCH,BSTAR,MEAN_MOTION_DOT,MEAN_MOTION_DDOT
SWARM A,2013-067B,2026-07-07T17:38:37.690080,15.51356840,.0003269,87.3309,48.6027,95.7742,264.3892,0,U,39452,999,70943,.12274E-3,.7255E-4,0
SWARM C,2013-067C,2026-07-07T17:38:29.302368,15.51356009,.0003265,87.3308,47.1837,95.8913,264.2721,0,U,39453,999,70939,.122E-3,.7212E-4,0
BRITE-CA1 (TORONTO),2014-033L,2026-07-06T21:03:33.808896,14.72711123,.00778489,97.9763,316.4452,213.0292,146.6041,0,U,40020,999,64511,.14459418E-3,.913E-5,0
OCO 2,2014-035A,2026-07-07T18:08:58.875072,14.57128360,.0001471,98.2020,129.7365,81.9161,278.2205,0,U,40059,999,63904,.82855E-4,.328E-5,0
BRITE-PL2 (HEWELIUSZ),2014-049B,2026-07-07T06:09:30.308256,14.94668605,.00148831,97.9109,300.4136,47.9370,312.3113,0,U,40119,999,64444,.18559605E-3,.1956E-4,0
MMS 1,2015-011A,2026-07-07T22:00:01.998720,0.28329921,.8303866,72.4032,348.5489,167.9282,253.0599,0,U,40482,999,134,0,-.668E-5,0
MMS 2,2015-011B,2026-07-07T22:00:01.998720,0.28329865,.8306682,72.4071,348.5479,167.9312,253.0487,0,U,40483,999,134,0,-.668E-5,0
MMS 3,2015-011C,2026-07-07T22:00:01.998720,0.28329849,.8305049,72.4069,348.5598,167.9388,253.0227,0,U,40484,999,131,0,-.667E-5,0
MMS 4,2015-011D,2026-07-07T22:00:01.998720,0.28331235,.8304841,72.3991,348.5426,167.9493,253.0096,0,U,40485,999,137,0,-.667E-5,0
ASTROSAT,2015-052A,2026-07-06T01:29:49.803072,14.82542388,.0008506,5.9982,19.4758,302.4435,57.4871,0,U,40930,999,58263,.13877E-3,.1814E-4,0
DAMPE,2015-078A,2026-07-07T19:47:02.355648,15.30839270,.0012403,97.4564,194.3932,11.5979,348.5545,0,U,41173,999,58770,.2278E-4,.602E-5,0
PISAT,2016-059B,2026-07-07T10:36:50.056128,14.69020153,.00300184,97.8185,188.0251,138.5610,221.7881,0,U,41784,999,52271,.14640444E-3,.817E-5,0
HXMT (HUIYAN),2017-034A,2026-07-07T20:29:10.993344,15.18643931,.003275,43.0143,67.9514,276.0378,83.6739,0,U,42758,999,50080,.16635E-3,.3311E-4,0
FLYING LAPTOP,2017-042G,2026-07-07T20:21:49.124736,15.01282547,.0019928,97.4782,343.5995,55.6340,304.6766,0,U,42831,999,48955,.24799E-3,.3144E-4,0
ZHANGHENG 1-01 (CSES-1),2018-015C,2026-07-07T20:42:43.732224,15.21094968,.0018166,97.6890,354.9369,190.9816,169.1025,0,U,43194,999,46778,.22768E-3,.501E-4,0
SALSAT,2020-068K,2026-07-06T23:06:33.434208,15.30092809,.0008388,97.8858,192.2352,224.1445,135.9125,0,U,46495,999,31838,.20798571E-3,.5977E-4,0
IXPE,2021-121A,2026-07-07T20:00:04.000032,15.10445734,.0007219,0.2289,161.4236,29.1380,175.4750,0,U,49954,999,582,.41053E-3,.7883E-4,0
