SWARM A                 
1 39452U 13067B   26188.73515845  .00007255  00000+0  12274-3 0  9990
2 39452  87.3309  48.6027 0003269  95.7742 264.3892 15.51356840709431
SWARM C                 
1 39453U 13067C   26188.73506137  .00007212  00000+0  12200-3 0  9997
2 39453  87.3308  47.1837 0003265  95.8913 264.2721 15.51356009709393
BRITE-CA1 (TORONTO)     
1 40020U 14033L   26187.87747464  .00000913  00000+0  14459-3 0  9996
2 40020  97.9763 316.4452 0077848 213.0292 146.6041 14.72711123645115
OCO 2                   
1 40059U 14035A   26188.75623698  .00000328  00000+0  82855-4 0  9996
2 40059  98.2020 129.7365 0001471  81.9161 278.2205 14.57128360639048
BRITE-PL2 (HEWELIUSZ)   
1 40119U 14049B   26188.25660079  .00001956  00000+0  18560-3 0  9996
2 40119  97.9109 300.4136 0014883  47.9370 312.3113 14.94668605644448
MMS 1                   
1 40482U 15011A   26188.91668980 -.00000668  00000+0  00000+0 0  9997
2 40482  72.4032 348.5489 8303866 167.9282 253.0599  0.28329921  1345
MMS 2                   
1 40483U 15011B   26188.91668980 -.00000668  00000+0  00000+0 0  9998
2 40483  72.4071 348.5479 8306682 167.9312 253.0487  0.28329865  1344
MMS 3                   
1 40484U 15011C   26188.91668980 -.00000667  00000+0  00000+0 0  9998
2 40484  72.4069 348.5598 8305049 167.9388 253.0227  0.28329849  1314
MMS 4                   
1 40485U 15011D   26188.91668980 -.00000667  00000+0  00000+0 0  9999
2 40485  72.3991 348.5426 8304841 167.9493 253.0096  0.28331235  1376
ASTROSAT                
1 40930U 15052A   26187.06238198  .00001814  00000+0  13877-3 0  9992
2 40930   5.9982  19.4758 0008506 302.4435  57.4871 14.82542388582636
DAMPE                   
1 41173U 15078A   26188.82433282  .00000602  00000+0  22780-4 0  9994
2 41173  97.4564 194.3932 0012403  11.5979 348.5545 15.30839270587705
PISAT                   
1 41784U 16059B   26188.44224602  .00000817  00000+0  14640-3 0  9997
2 41784  97.8185 188.0251 0030018 138.5610 221.7881 14.69020153522712
HXMT (HUIYAN)           
1 42758U 17034A   26188.85359946  .00003311  00000+0  16635-3 0  9996
2 42758  43.0143  67.9514 0032750 276.0378  83.6739 15.18643931500805
FLYING LAPTOP           
1 42831U 17042G   26188.84848524  .00003144  00000+0  24799-3 0  9995
2 42831  97.4782 343.5995 0019928  55.6340 304.6766 15.01282547489555
ZHANGHENG 1-01 (CSES-1) 
1 43194U 18015C   26188.86300616  .00005010  00000+0  22768-3 0  9994
2 43194  97.6890 354.9369 0018166 190.9816 169.1025 15.21094968467788
SALSAT                  
1 46495U 20068K   26187.96288697  .00005977  00000+0  20799-3 0  9990
2 46495  97.8858 192.2352 0008388 224.1445 135.9125 15.30092809318384
IXPE                    
1 49954U 21121A   26188.83337963  .00007883  00000+0  41053-3 0  9996
2 49954   0.2289 161.4236 0007219  29.1380 175.4750 15.10445734  5827
